[{"OBJECT_NAME":"ONEWEB-0524","OBJECT_ID":"2022-138AF","EPOCH":"2026-03-09T16:51:16.307712","MEAN_MOTION":13.207709,"ECCENTRICITY":0.00024824,"INCLINATION":87.9163,"RA_OF_ASC_NODE":294.3031,"ARG_OF_PERICENTER":77.6796,"MEAN_ANOMALY":282.4615,"EPHEMERIS_TYPE":0,"CLASSIFICATION_TYPE":"U","NORAD_CAT_ID":54142,"ELEMENT_SET_NO":999,"REV_AT_EPOCH":16617,"BSTAR":0.00033469555,"MEAN_MOTION_DOT":1.49e-6,"MEAN_MOTION_DDOT":0},{"OBJECT_NAME":"DELTA 1 DEB","OBJECT_ID":"1975-052HQ","EPOCH":"2026-03-07T12:37:20.576640","MEAN_MOTION":12.09269515,"ECCENTRICITY":0.06998675,"INCLINATION":99.5293,"RA_OF_ASC_NODE":272.7832,"ARG_OF_PERICENTER":281.5857,"MEAN_ANOMALY":100.2781,"EPHEMERIS_TYPE":0,"CLASSIFICATION_TYPE":"U","NORAD_CAT_ID":21570,"ELEMENT_SET_NO":999,"REV_AT_EPOCH":33578,"BSTAR":0.0071970362,"MEAN_MOTION_DOT":1.337e-5,"MEAN_MOTION_DDOT":0}]
